FENGYUN 1C DEB          
1 31813U 99025CHB 17345.00210161  .00000186  00000-0  66915-4 0  9998
2 31813  99.4269  64.0840 0154535 246.9466 111.5362 14.40950381550845
